STARLINK-37578          
1 69451U 26127J   26178.81555399  .00208928  00000+0  13303-2 0  9992
2 69451  53.1574 209.3266 0001803  82.3550 277.7675 15.75298209  3085
STARLINK-37577          
1 69452U 26127K   26178.91668981 -.00005541  00000+0 -32025-4 0  9998
2 69452  53.1587 208.6650 0001014  72.1355 219.1154 15.75223140  4369
STARLINK-37500          
1 69453U 26127L   26178.81134513  .00245412  00000+0  15545-2 0  9994
2 69453  53.1577 209.2987 0002128  85.7289 274.3974 15.75306728  3087
STARLINK-37575          
1 69454U 26127M   26178.91668981 -.00000496  00000+0  93428-6 0  9999
2 69454  53.1588 208.6160 0001022  87.7891 227.3551 15.75218466  4361
STARLINK-37642          
1 69455U 26127N   26178.87932321  .00214994  00000+0  13664-2 0  9996
2 69455  53.1574 209.0123 0001084  77.5966 282.5176 15.75322117  3093
STARLINK-37513          
1 69456U 26127P   26178.90976482  .00262348  00000+0  12864-2 0  9994
2 69456  53.1563 208.4761 0000833 114.1419 245.9691 15.80978820  3106
STARLINK-37563          
1 69457U 26127Q   26178.92915289  .00148152  00000+0  95200-3 0  9997
2 69457  53.1588 208.6056 0000941  94.8284 265.2844 15.75282311  3109
STARLINK-37565          
1 69458U 26127R   26178.91668981  .00001929  00000+0  16764-4 0  9990
2 69458  53.1582 208.5573 0000863  95.8851 246.8811 15.75215740  4372
STARLINK-37498          
1 69459U 26127S   26178.81101742  .00287022  00000+0  18077-2 0  9994
2 69459  53.1571 209.2946 0002105  76.4461 283.6794 15.75314768  3082
STARLINK-37384          
1 69460U 26127T   26178.92428625  .00100728  00000+0  65285-3 0  9991
2 69460  53.1591 208.5725 0000817  98.5079 261.6034 15.75260544  3109
STARLINK-37707          
1 69461U 26127U   26178.92007882  .00236869  00000+0  14996-2 0  9998
2 69461  53.1587 208.5435 0003078  79.8657 280.2710 15.75342805  3108
STARLINK-37525          
1 69462U 26127V   26178.91668981  .00027618  00000+0  18404-3 0  9990
2 69462  53.1580 208.5036 0000940  94.8173 273.7071 15.75202352  4373
STARLINK-37526          
1 69463U 26127W   26178.91668981  .00033014  00000+0  21904-3 0  9997
2 69463  53.1577 208.4545 0001310  97.8914 294.5176 15.75201950  4372
STARLINK-37574          
1 69464U 26127X   26178.91553686  .00165536  00000+0  10600-2 0  9998
2 69464  53.1581 208.5122 0001960  84.9930 275.1314 15.75304738  3103
STARLINK-37535          
1 69465U 26127Y   26178.91668981  .00032266  00000+0  21420-3 0  9990
2 69465  53.1574 208.4499 0000958 103.6087 290.6696 15.75201067  4376
STARLINK-37583          
1 69466U 26127Z   26178.91668981 -.01885531  00000+0 -12588-1 0  9998
2 69466  53.1587 208.1409 0001198  83.3461 100.7383 15.77801353  4376
STARLINK-37546          
1 69467U 26127AA  26178.90645931  .00157587  00000+0  10108-2 0  9995
2 69467  53.1573 208.4490 0000851 112.6353 247.4757 15.75291460  3100
STARLINK-37532          
1 69468U 26127AB  26178.56643216  .00193266  00000+0  95773-3 0  9998
2 69468  53.1575 209.8744 0000986  95.9027 264.2108 15.80946204  3050
STARLINK-37708          
1 69469U 26127AC  26178.90613177  .00246891  00000+0  15621-2 0  9996
2 69469  53.1571 208.4459 0001622  60.7946 299.3237 15.75327860  3106
STARLINK-37686          
1 69470U 26127AD  26178.90191973  .00115730  00000+0  74771-3 0  9992
2 69470  53.1579 208.4186 0000918  93.2878 266.8247 15.75273457  3107
STARLINK-37451          
1 69471U 26127AE  26178.81391580  .00266372  00000+0  13062-2 0  9993
2 69471  53.1575 208.5704 0001021  80.4522 279.6616 15.80968102  3095
DTC TEST OBJECT A       
1 69472U 26128A   26178.70262988  .00024942  00000+0  35338-3 0  9998
2 69472  54.9931 256.4335 0009898 326.4623  33.5785 15.56339274  2861
DTC TEST OBJECT B       
1 69473U 26128B   26178.37654890  .00024134  00000+0  33565-3 0  9992
2 69473  55.0021 257.9040 0009934 325.3113  34.7274 15.56860342  2801
TJS-25                  
1 69474U 26129A   26178.98561236 -.00000355  00000+0  00000+0 0  9996
2 69474   5.9730 330.2718 0002219 299.3794 121.5164  1.00273172   178
STARLINK-37816          
1 69478U 26131A   26178.91668981  .00193569  00000+0  99302-3 0  9997
2 69478  97.2831 199.8183 0001014  77.8256  94.2766 15.80728042  3730
STARLINK-37878          
1 69479U 26131B   26178.57556024  .00246722  00000+0  12527-2 0  9997
2 69479  97.2818 199.4415 0000868  68.7616 291.3745 15.80815310  3805
STARLINK-37817          
1 69480U 26131C   26178.91668981  .00076606  00000+0  39887-3 0  9994
2 69480  97.2828 199.8209 0000976  92.7108  87.9319 15.80722772  3733
STARLINK-37727          
1 69481U 26131D   26178.91668981  .00112238  00000+0  58076-3 0  9998
2 69481  97.2830 199.8231 0001574  88.1331  96.7867 15.80756230  3736
STARLINK-37814          
1 69482U 26131E   26178.91668981  .00213334  00000+0  10917-2 0  9999
2 69482  97.2830 199.8261 0001096  81.6466 107.5505 15.80731047  3735
STARLINK-37869          
1 69483U 26131F   26178.91668981  .00191198  00000+0  98108-3 0  9992
2 69483  97.2835 199.8275 0000886  76.1649 117.3083 15.80729219  3732
