OBJECT_NAME,OBJECT_ID,EPOCH,MEAN_MOTION,ECCENTRICITY,INCLINATION,RA_OF_ASC_NODE,ARG_OF_PERICENTER,MEAN_ANOMALY,EPHEMERIS_TYPE,CLASSIFICATION_TYPE,NORAD_CAT_ID,ELEMENT_SET_NO,REV_AT_EPOCH,BSTAR,MEAN_MOTION_DOT,MEAN_MOTION_DDOT
STARLINK-37578,2026-127J,2026-06-27T19:34:23.864736,15.75298209,.00018036,53.1574,209.3266,82.3550,277.7675,0,U,69451,999,308,.13302536E-2,.208928E-2,0
STARLINK-37577,2026-127K,2026-06-27T22:00:01.999584,15.75223140,.00010148,53.1587,208.6650,72.1355,219.1154,0,U,69452,999,436,-.3202529E-4,-.5541E-4,0
STARLINK-37500,2026-127L,2026-06-27T19:28:20.219232,15.75306728,.00021282,53.1577,209.2987,85.7289,274.3974,0,U,69453,999,308,.1554476E-2,.245412E-2,0
STARLINK-37575,2026-127M,2026-06-27T22:00:01.999584,15.75218466,.0001022,53.1588,208.6160,87.7891,227.3551,0,U,69454,999,436,.934277E-6,-.496E-5,0
STARLINK-37642,2026-127N,2026-06-27T21:06:13.525344,15.75322117,.00010845,53.1574,209.0123,77.5966,282.5176,0,U,69455,999,309,.13663569E-2,.214994E-2,0
STARLINK-37513,2026-127P,2026-06-27T21:50:03.680448,15.80978820,.00008336,53.1563,208.4761,114.1419,245.9691,0,U,69456,999,310,.12864422E-2,.262348E-2,0
STARLINK-37563,2026-127Q,2026-06-27T22:17:58.809696,15.75282311,.00009417,53.1588,208.6056,94.8284,265.2844,0,U,69457,999,310,.95200093E-3,.148152E-2,0
STARLINK-37565,2026-127R,2026-06-27T22:00:01.999584,15.75215740,.00008633,53.1582,208.5573,95.8851,246.8811,0,U,69458,999,437,.16764428E-4,.1929E-4,0
STARLINK-37498,2026-127S,2026-06-27T19:27:51.905088,15.75314768,.00021052,53.1571,209.2946,76.4461,283.6794,0,U,69459,999,308,.18077327E-2,.287022E-2,0
STARLINK-37384,2026-127T,2026-06-27T22:10:58.332000,15.75260544,.00008174,53.1591,208.5725,98.5079,261.6034,0,U,69460,999,310,.652851E-3,.100728E-2,0
STARLINK-37707,2026-127U,2026-06-27T22:04:54.810048,15.75342805,.00030787,53.1587,208.5435,79.8657,280.2710,0,U,69461,999,310,.14995553E-2,.236869E-2,0
STARLINK-37525,2026-127V,2026-06-27T22:00:01.999584,15.75202352,.00009402,53.1580,208.5036,94.8173,273.7071,0,U,69462,999,437,.18403933E-3,.27618E-3,0
STARLINK-37526,2026-127W,2026-06-27T22:00:01.999584,15.75201950,.00013104,53.1577,208.4545,97.8914,294.5176,0,U,69463,999,437,.21904499E-3,.33014E-3,0
STARLINK-37574,2026-127X,2026-06-27T21:58:22.384704,15.75304738,.00019609,53.1581,208.5122,84.9930,275.1314,0,U,69464,999,310,.10599618E-2,.165536E-2,0
STARLINK-37535,2026-127Y,2026-06-27T22:00:01.999584,15.75201067,.00009589,53.1574,208.4499,103.6087,290.6696,0,U,69465,999,437,.21420287E-3,.32266E-3,0
STARLINK-37583,2026-127Z,2026-06-27T22:00:01.999584,15.77801353,.00011986,53.1587,208.1409,83.3461,100.7383,0,U,69466,999,437,-.12588211E-1,-.1885531E-1,0
STARLINK-37546,2026-127AA,2026-06-27T21:45:18.084384,15.75291460,.0000851,53.1573,208.4490,112.6353,247.4757,0,U,69467,999,310,.10108221E-2,.157587E-2,0
STARLINK-37532,2026-127AB,2026-06-27T13:35:39.738624,15.80946204,.00009864,53.1575,209.8744,95.9027,264.2108,0,U,69468,999,305,.95772652E-3,.193266E-2,0
STARLINK-37708,2026-127AC,2026-06-27T21:44:49.784928,15.75327860,.00016225,53.1571,208.4459,60.7946,299.3237,0,U,69469,999,310,.1562125E-2,.246891E-2,0
STARLINK-37686,2026-127AD,2026-06-27T21:38:45.864672,15.75273457,.00009185,53.1579,208.4186,93.2878,266.8247,0,U,69470,999,310,.7477149E-3,.11573E-2,0
STARLINK-37451,2026-127AE,2026-06-27T19:32:02.325120,15.80968102,.0001021,53.1575,208.5704,80.4522,279.6616,0,U,69471,999,309,.13061639E-2,.266372E-2,0
DTC TEST OBJECT A,2026-128A,2026-06-27T16:51:47.221632,15.56339274,.00098989,54.9931,256.4335,326.4623,33.5785,0,U,69472,999,286,.35337994E-3,.24942E-3,0
DTC TEST OBJECT B,2026-128B,2026-06-27T09:02:13.824960,15.56860342,.0009934,55.0021,257.9040,325.3113,34.7274,0,U,69473,999,280,.3356545E-3,.24134E-3,0
TJS-25,2026-129A,2026-06-27T23:39:16.907904,1.00273172,.0002219,5.9730,330.2718,299.3794,121.5164,0,U,69474,999,17,0,-.355E-5,0
STARLINK-37816,2026-131A,2026-06-27T22:00:01.999584,15.80728042,.00010148,97.2831,199.8183,77.8256,94.2766,0,U,69478,999,373,.99301757E-3,.193569E-2,0
STARLINK-37878,2026-131B,2026-06-27T13:48:48.404736,15.80815310,.00008685,97.2818,199.4415,68.7616,291.3745,0,U,69479,999,380,.12527409E-2,.246722E-2,0
STARLINK-37817,2026-131C,2026-06-27T22:00:01.999584,15.80722772,.00009762,97.2828,199.8209,92.7108,87.9319,0,U,69480,999,373,.39887355E-3,.76606E-3,0
STARLINK-37727,2026-131D,2026-06-27T22:00:01.999584,15.80756230,.00015749,97.2830,199.8231,88.1331,96.7867,0,U,69481,999,373,.58076211E-3,.112238E-2,0
STARLINK-37814,2026-131E,2026-06-27T22:00:01.999584,15.80731047,.00010966,97.2830,199.8261,81.6466,107.5505,0,U,69482,999,373,.10916901E-2,.213334E-2,0
STARLINK-37869,2026-131F,2026-06-27T22:00:01.999584,15.80729219,.00008866,97.2835,199.8275,76.1649,117.3083,0,U,69483,999,373,.98107864E-3,.191198E-2,0
